      2.10          N: GNSS NAV DATA                        RINEX VERSION / TYPE
fic2rin                                 09/04/2019 00:19:15 PGM / RUN BY / DATE
                                                            END OF HEADER
 2 19  9  3 20  0  0.0-2.972553484142e-04-8.299139153678e-12 0.000000000000e+00
    9.900000000000e+01 2.912500000000e+01 4.773770275265e-09-1.327612565215e+00
    1.953914761543e-06 1.911249069963e-02 9.492039680481e-06 5.153528554916e+03
    2.448000000000e+05-1.862645149231e-09 1.479447159084e+00 5.345791578293e-07
    9.556564213259e-01 1.956250000000e+02-1.717605062677e+00-8.266058600234e-09
    5.268076579392e-10 1.000000000000e+00 2.069000000000e+03 0.000000000000e+00
    3.400000000000e+00 0.000000000000e+00-2.048909664154e-08 9.900000000000e+01
    2.376000000000e+05 4.000000000000e+00
 5 19  9  3 20  0  0.0-1.116655766964e-06-3.410605131648e-13 0.000000000000e+00
    9.700000000000e+01-2.700000000000e+01 5.364866325359e-09 1.322335898701e+00
   -1.234933733940e-06 5.882841302082e-03 5.705282092094e-06 5.153750375748e+03
    2.448000000000e+05-7.823109626770e-08 2.564299007907e+00 1.043081283569e-07
    9.506510134705e-01 2.664375000000e+02 7.746616115827e-01-8.588572034213e-09
   -8.964659128322e-11 1.000000000000e+00 2.069000000000e+03 0.000000000000e+00
    2.400000000000e+00 0.000000000000e+00-1.117587089539e-08 9.700000000000e+01
    2.376000000000e+05 4.000000000000e+00
14 19  9  3 20  0  0.0-6.321817636490e-05 1.932676241267e-12 0.000000000000e+00
    1.600000000000e+01-1.487500000000e+01 4.576976363723e-09 3.413960543903e-01
   -6.649643182755e-07 1.078543718904e-02 1.117214560509e-05 5.153743801117e+03
    2.448000000000e+05-1.825392246246e-07-2.565565900815e+00 4.284083843231e-08
    9.607554998258e-01 1.677500000000e+02-1.929478177322e+00-8.178554955356e-09
   -3.860875106660e-10 1.000000000000e+00 2.069000000000e+03 0.000000000000e+00
    2.400000000000e+00 0.000000000000e+00-9.778887033463e-09 1.600000000000e+01
    2.376000000000e+05 4.000000000000e+00
 8 19  9  3 20  0  0.0-5.153939127922e-06-1.364242052659e-12 0.000000000000e+00
    6.300000000000e+01-5.103125000000e+01 4.052311652189e-09 7.658841250509e-01
   -2.639368176460e-06 4.404700361192e-03 9.387731552124e-06 5.153554910660e+03
    2.448000000000e+05 8.940696716309e-08 4.826965174932e-01 0.000000000000e+00
    9.704760857558e-01 2.033437500000e+02-2.256321956523e-01-7.958545791091e-09
   -7.893185925733e-11 1.000000000000e+00 2.069000000000e+03 0.000000000000e+00
    2.400000000000e+00 0.000000000000e+00 5.122274160385e-09 6.300000000000e+01
    2.376000000000e+05 4.000000000000e+00
 4 19  9  3 20  0  0.0 1.288764178753e-04-5.979927664157e-11 0.000000000000e+00
    7.300000000000e+01-6.071875000000e+01 4.459828626906e-09 7.205986196192e-01
   -3.196299076080e-06 1.468797447160e-02 8.629634976387e-06 5.153677423477e+03
    2.448000000000e+05-1.713633537292e-07 3.917317973389e-01 1.806765794754e-07
    9.590290224254e-01 2.158437500000e+02 6.791479374205e-01-8.248915028993e-09
   -2.571535686212e-10 1.000000000000e+00 2.069000000000e+03 0.000000000000e+00
    2.400000000000e+00 6.300000000000e+01-5.587935447693e-09 7.300000000000e+01
    2.376000000000e+05 4.000000000000e+00
26 19  9  3 20  0  0.0 3.056507557631e-05 8.867573342286e-12 0.000000000000e+00
    9.000000000000e+00 4.406250000000e+00 4.988779231251e-09 2.493724492606e+00
    2.030283212662e-07 3.854995477013e-03 3.408640623093e-06 5.153659742355e+03
    2.448000000000e+05-3.352761268616e-08-5.774090611422e-01 3.911554813385e-08
    9.502450083531e-01 3.084062500000e+02 1.310275787846e-01-8.529998165805e-09
   -1.171477368163e-10 1.000000000000e+00 2.069000000000e+03 0.000000000000e+00
    2.400000000000e+00 0.000000000000e+00 7.450580596924e-09 9.000000000000e+00
    2.376000000000e+05 4.000000000000e+00
18 19  9  3 20  0  0.0 8.296826854348e-05 2.842170943040e-12 0.000000000000e+00
    5.000000000000e+00 2.806250000000e+01 4.671980321019e-09-1.848224869139e+00
    1.691281795502e-06 1.568867452443e-02 8.275732398033e-06 5.153679082870e+03
    2.448000000000e+05 2.514570951462e-07 1.492970441103e+00 1.769512891769e-07
    9.551145403772e-01 2.137500000000e+02 1.428748521751e+00-8.041049227691e-09
    5.050210361533e-10 1.000000000000e+00 2.069000000000e+03 0.000000000000e+00
    2.400000000000e+00 0.000000000000e+00-5.587935447693e-09 5.000000000000e+00
    2.376000000000e+05 4.000000000000e+00
24 19  9  3 20  0  0.0-1.674052327871e-06-5.684341886081e-13 0.000000000000e+00
    2.300000000000e+01 9.656250000000e+01 4.985921969377e-09-1.290558023528e+00
    4.956498742104e-06 8.603475289419e-03 8.989125490189e-06 5.153705204010e+03
    2.448000000000e+05 2.495944499969e-07-1.651250605216e+00-1.043081283569e-07
    9.376926855442e-01 1.949062500000e+02 6.027286577022e-01-8.314274894351e-09
    1.339341503235e-10 1.000000000000e+00 2.069000000000e+03 0.000000000000e+00
    2.400000000000e+00 0.000000000000e+00 2.793967723846e-09 2.300000000000e+01
    2.376000000000e+05 4.000000000000e+00
13 19  9  3 20  0  0.0-4.627881571651e-05 2.046363078989e-12 0.000000000000e+00
    4.900000000000e+01 7.656250000000e+00 4.324465845646e-09-2.898726136036e-01
    4.284083843231e-07 3.710800898261e-03 1.164339482784e-05 5.153674819946e+03
    2.448000000000e+05 1.862645149231e-09-2.520477485559e+00-4.470348358154e-08
    9.681518176036e-01 1.546562500000e+02 1.211656369323e+00-7.971046311788e-09
   -3.871589838686e-10 1.000000000000e+00 2.069000000000e+03 0.000000000000e+00
    2.400000000000e+00 0.000000000000e+00-1.117587089539e-08 4.900000000000e+01
    2.376000000000e+05 4.000000000000e+00
19 19  9  3 20  0  0.0-2.721301279962e-04 5.115907697473e-12 0.000000000000e+00
    3.600000000000e+01-5.237500000000e+01 3.760156625616e-09-2.988350011310e+00
   -2.879649400711e-06 9.467947995290e-03 1.093186438084e-05 5.153654531479e+03
    2.448000000000e+05 1.695007085800e-07 5.976173945575e-01 2.048909664154e-08
    9.823097676133e-01 1.747812500000e+02 1.493552157311e+00-7.626031940555e-09
   -2.178662178596e-11 1.000000000000e+00 2.069000000000e+03 0.000000000000e+00
    2.400000000000e+00 0.000000000000e+00-1.536682248116e-08 3.600000000000e+01
    2.376000000000e+05 4.000000000000e+00
12 19  9  3 20  0  0.0 2.076090313494e-04-3.751665644813e-12 0.000000000000e+00
    3.000000000000e+01-1.562500000000e+01 4.235533569831e-09-2.896017629524e+00
   -7.059425115585e-07 7.488319068216e-03 3.848224878311e-06 5.153583621979e+03
    2.448000000000e+05-9.313225746155e-09-4.814832156628e-01-2.048909664154e-08
    9.816867751717e-01 3.155625000000e+02 1.105233197170e+00-8.066050269084e-09
   -1.385772008681e-10 1.000000000000e+00 2.069000000000e+03 0.000000000000e+00
    2.400000000000e+00 0.000000000000e+00-1.257285475731e-08 3.000000000000e+01
    2.376000000000e+05 4.000000000000e+00
28 19  9  3 20  0  0.0 7.631764747202e-04-9.094947017729e-13 0.000000000000e+00
    3.100000000000e+01-2.918750000000e+01 4.260891768959e-09 1.414197911362e+00
   -1.857057213783e-06 1.905259629712e-02 4.300847649574e-06 5.153703079224e+03
    2.448000000000e+05 4.470348358154e-08-4.586867768197e-01-5.327165126801e-07
    9.809870526769e-01 3.065937500000e+02-1.459521792061e+00-8.235343035093e-09
   -1.682212928064e-10 1.000000000000e+00 2.069000000000e+03 0.000000000000e+00
    2.400000000000e+00 0.000000000000e+00-1.117587089539e-08 3.100000000000e+01
    2.376000000000e+05 4.000000000000e+00
20 19  9  3 20  0  0.0 5.267327651381e-04 1.136868377216e-13 0.000000000000e+00
    3.200000000000e+01-1.271875000000e+01 5.688094074807e-09-1.960985765214e+00
   -5.252659320831e-07 4.789264174178e-03 5.397945642471e-06 5.153615049362e+03
    2.448000000000e+05-1.322478055954e-07 2.467469065888e+00 1.862645149231e-08
    9.316159710760e-01 2.630000000000e+02 2.420366398227e+00-8.684647464712e-09
    8.500354073867e-11 1.000000000000e+00 2.069000000000e+03 0.000000000000e+00
    2.400000000000e+00 0.000000000000e+00-8.847564458847e-09 3.200000000000e+01
    2.376000000000e+05 4.000000000000e+00
22 19  9  3 20  0  0.0-7.510972209275e-04-4.092726157978e-12 0.000000000000e+00
    6.700000000000e+01-2.496875000000e+01 5.848100739727e-09-2.962698285533e-01
   -1.255422830582e-06 6.952830008231e-03 5.017966032028e-06 5.153711885452e+03
    2.448000000000e+05-9.313225746155e-09 2.515820043009e+00-3.725290298462e-08
    9.283622671805e-01 2.668437500000e+02-1.290984427575e+00-8.971445125271e-09
    3.142988060926e-11 1.000000000000e+00 2.069000000000e+03 0.000000000000e+00
    2.400000000000e+00 0.000000000000e+00-1.816079020500e-08 6.700000000000e+01
    2.376000000000e+05 4.000000000000e+00
16 19  9  3 20  0  0.0-7.084105163813e-05-3.410605131648e-12 0.000000000000e+00
    9.000000000000e+01-1.534375000000e+01 4.246605459591e-09 1.555187072813e+00
   -7.916241884232e-07 1.077135337982e-02 4.259869456291e-06 5.153628709793e+03
    2.448000000000e+05-1.024454832077e-07-4.625864117123e-01 1.005828380585e-07
    9.820153056106e-01 3.122187500000e+02 5.810826078973e-01-8.236057350562e-09
   -2.692969315838e-10 1.000000000000e+00 2.069000000000e+03 0.000000000000e+00
    2.400000000000e+00 0.000000000000e+00-1.071020960808e-08 9.000000000000e+01
    2.376000000000e+05 4.000000000000e+00
10 19  9  3 20  0  0.0-3.941031172872e-05-1.489297574153e-11 0.000000000000e+00
    9.000000000000e+01-2.118750000000e+01 4.918419157614e-09 2.709888009507e+00
   -1.026317477226e-06 4.782393458299e-03 5.600973963737e-06 5.153657905579e+03
    2.448000000000e+05-1.005828380585e-07 2.589320365209e+00-7.636845111847e-08
    9.637875058010e-01 2.748125000000e+02-2.730758294335e+00-8.228199880409e-09
    1.000041655749e-11 1.000000000000e+00 2.069000000000e+03 0.000000000000e+00
    2.400000000000e+00 0.000000000000e+00 1.862645149231e-09 9.000000000000e+01
    2.376000000000e+05 4.000000000000e+00
